TIANMU-1 21             
1 58662U 23208C   26164.85793979  .00009770  00000+0  28972-3 0  9991
2 58662  97.4502 284.4386 0006214 337.8732  22.2242 15.35023971137053
TIANMU-1 22             
1 58663U 23208D   26164.87022522  .00008013  00000+0  26993-3 0  9993
2 58663  97.4499 281.0916 0003542  16.3150 343.8205 15.31016525136823
TIANMU-1 15             
1 58700U 24004A   26164.82215406  .00005725  00000+0  21880-3 0  9997
2 58700  97.4662 351.0122 0007039  14.2126 345.9309 15.26992345135261
TIANMU-1 16             
1 58701U 24004B   26164.87632653  .00005882  00000+0  22660-3 0  9991
2 58701  97.4608 350.3070 0006173  19.2055 340.9415 15.26718082135278
TIANMU-1 17             
1 58702U 24004C   26164.86177822  .00005995  00000+0  23089-3 0  9994
2 58702  97.4636 350.7762 0005845  25.4140 334.7385 15.26717390135268
TIANMU-1 18             
1 58703U 24004D   26164.83872814  .00005582  00000+0  21358-3 0  9994
2 58703  97.4653 351.0065 0004367  25.8637 334.2820 15.26975310135268
INSAT-3DS               
1 58990U 24033A   26164.84897882 -.00000146  00000+0  00000+0 0  9996
2 58990   0.0432 128.1610 0001000 306.5033 215.2253  1.00271743 47031
METEOR-M2 4             
1 59051U 24039A   26164.87735690  .00000007  00000+0  23005-4 0  9992
2 59051  98.7009 124.2170 0007105 170.2588 189.8728 14.22429293118793
GOES 19                 
1 60133U 24119A   26164.81835802 -.00000238  00000+0  00000+0 0  9996
2 60133   0.0071  61.8434 0000495 114.1713 305.5294  1.00269973  6938
MTG-S1                  
1 64723U 25143A   26164.76123531 -.00000021  00000+0  00000+0 0  9996
2 64723   0.6064 338.1623 0000985  12.5816 181.8985  1.00271691  3382
METOP-SGA1              
1 65159U 25172A   26164.76015324  .00000039  00000+0  37768-4 0  9996
2 65159  98.6645 224.5504 0000925  91.0605 269.0678 14.21509220 43309
FENGYUN 3H              
1 65815U 25219A   26164.79961005  .00000041  00000+0  39945-4 0  9998
2 65815  98.6768 105.6346 0001592  78.3000 281.8355 14.19919920 36906
