OBJECT_NAME,OBJECT_ID,EPOCH,MEAN_MOTION,ECCENTRICITY,INCLINATION,RA_OF_ASC_NODE,ARG_OF_PERICENTER,MEAN_ANOMALY,EPHEMERIS_TYPE,CLASSIFICATION_TYPE,NORAD_CAT_ID,ELEMENT_SET_NO,REV_AT_EPOCH,BSTAR,MEAN_MOTION_DOT,MEAN_MOTION_DDOT
TIANMU-1 21,2023-208C,2026-06-13T20:35:25.997856,15.35023971,.0006214,97.4502,284.4386,337.8732,22.2242,0,U,58662,999,13705,.28972E-3,.977E-4,0
TIANMU-1 22,2023-208D,2026-06-13T20:53:07.459008,15.31016525,.0003542,97.4499,281.0916,16.3150,343.8205,0,U,58663,999,13682,.26993E-3,.8013E-4,0
TIANMU-1 15,2024-004A,2026-06-13T19:43:54.110784,15.26992345,.0007039,97.4662,351.0122,14.2126,345.9309,0,U,58700,999,13526,.2188E-3,.5725E-4,0
TIANMU-1 16,2024-004B,2026-06-13T21:01:54.612192,15.26718082,.0006173,97.4608,350.3070,19.2055,340.9415,0,U,58701,999,13527,.2266E-3,.5882E-4,0
TIANMU-1 17,2024-004C,2026-06-13T20:40:57.638208,15.26717390,.0005845,97.4636,350.7762,25.4140,334.7385,0,U,58702,999,13526,.23089E-3,.5995E-4,0
TIANMU-1 18,2024-004D,2026-06-13T20:07:46.111296,15.26975310,.0004367,97.4653,351.0065,25.8637,334.2820,0,U,58703,999,13526,.21358E-3,.5582E-4,0
INSAT-3DS,2024-033A,2026-06-13T20:22:31.770048,1.00271743,.0001,0.0432,128.1610,306.5033,215.2253,0,U,58990,999,4703,0,-.146E-5,0
METEOR-M2 4,2024-039A,2026-06-13T21:03:23.636160,14.22429293,.0007105,98.7009,124.2170,170.2588,189.8728,0,U,59051,999,11879,.23005E-4,.7E-7,0
GOES 19,2024-119A,2026-06-13T19:38:26.132928,1.00269973,.0000495,0.0071,61.8434,114.1713,305.5294,0,U,60133,999,693,0,-.238E-5,0
MTG-S1,2025-143A,2026-06-13T18:16:10.730784,1.00271691,.0000985,0.6064,338.1623,12.5816,181.8985,0,U,64723,999,338,0,-.21E-6,0
METOP-SGA1,2025-172A,2026-06-13T18:14:37.239936,14.21509220,.0000925,98.6645,224.5504,91.0605,269.0678,0,U,65159,999,4330,.37768E-4,.39E-6,0
FENGYUN 3H,2025-219A,2026-06-13T19:11:26.308320,14.19919920,.0001592,98.6768,105.6346,78.3000,281.8355,0,U,65815,999,3690,.39945E-4,.41E-6,0
